STARLINK-2131
1 27728C 21017G   21325.14843561  .00004697  00000-0  31482-3 0  3254
2 27728  53.0554  47.5707 0001470  80.2774 343.9149 15.06381896    13
